start=new Date('2022-03-03T00:00:00.000Z').valueOf();
sats=[{"FILE":"3341695","EPHEMERIS_TYPE":"0","MEAN_MOTION_DDOT":"0.0000000000000","PERIOD":"95.592","NORAD_CAT_ID":"47897","TLE_LINE1":"1 47897U 21021AP  22061.91642760  .00000319  00000-0  40330-4 0  9994","PERIAPSIS":"546.121","ECCENTRICITY":"0.00015620","OBJECT_TYPE":"PAYLOAD","MEAN_ELEMENT_THEORY":"SGP4","ELEMENT_SET_NO":"999","RA_OF_ASC_NODE":"20.7039","CLASSIFICATION_TYPE":"U","GP_ID":"197658642","TIME_SYSTEM":"UTC","ARG_OF_PERICENTER":"58.7239","SITE":"AFETR","BSTAR":"0.00004033000000","SEMIMAJOR_AXIS":"6925.338","MEAN_MOTION":"15.06403534","RCS_SIZE":"LARGE","MEAN_ANOMALY":"301.3902","REV_AT_EPOCH":"5497","MEAN_MOTION_DOT":"0.00000319","CENTER_NAME":"EARTH","INCLINATION":"53.0527","EPOCH":"2022-03-02T21:59:39.344640","DECAY_DATE":null,"COUNTRY_CODE":"US","OBJECT_NAME":"STARLINK-2357","LAUNCH_DATE":"2021-03-14","REF_FRAME":"TEME","APOAPSIS":"548.284","TLE_LINE2":"2 47897  53.0527  20.7039 0001562  58.7239 301.3902 15.06403534 54972","OBJECT_ID":"2021-021AP"},{"OBJECT_ID":"2021-021AQ","TLE_LINE2":"2 47898  53.0557  22.2357 0001577  62.5721 297.5429 15.06396842 54862","APOAPSIS":"548.315","OBJECT_NAME":"STARLINK-2358","LAUNCH_DATE":"2021-03-14","REF_FRAME":"TEME","DECAY_DATE":null,"COUNTRY_CODE":"US","INCLINATION":"53.0557","EPOCH":"2022-03-02T13:52:42.915936","CENTER_NAME":"EARTH","REV_AT_EPOCH":"5486","MEAN_MOTION_DOT":"-0.00000630","RCS_SIZE":"LARGE","MEAN_ANOMALY":"297.5429","BSTAR":"-0.00002339200000","SEMIMAJOR_AXIS":"6925.358","MEAN_MOTION":"15.06396842","SITE":"AFETR","ARG_OF_PERICENTER":"62.5721","TIME_SYSTEM":"UTC","GP_ID":"197625891","CLASSIFICATION_TYPE":"U","ELEMENT_SET_NO":"999","RA_OF_ASC_NODE":"22.2357","MEAN_ELEMENT_THEORY":"SGP4","OBJECT_TYPE":"PAYLOAD","PERIAPSIS":"546.131","TLE_LINE1":"1 47898U 21021AQ  22061.57827449 -.00000630  00000-0 -23392-4 0  9993","ECCENTRICITY":"0.00015770","MEAN_MOTION_DDOT":"0.0000000000000","NORAD_CAT_ID":"47898","PERIOD":"95.592","EPHEMERIS_TYPE":"0","FILE":"3341350"},{"TIME_SYSTEM":"UTC","ARG_OF_PERICENTER":"64.6844","SITE":"AFETR","MEAN_ELEMENT_THEORY":"SGP4","ELEMENT_SET_NO":"999","RA_OF_ASC_NODE":"12.2524","CLASSIFICATION_TYPE":"U","GP_ID":"197627141","TLE_LINE1":"1 47899U 21021AR  22061.57551160  .00002353  00000-0  17683-3 0  9995","PERIAPSIS":"545.950","ECCENTRICITY":"0.00018230","OBJECT_TYPE":"PAYLOAD","FILE":"3341350","EPHEMERIS_TYPE":"0","MEAN_MOTION_DDOT":"0.0000000000000","NORAD_CAT_ID":"47899","PERIOD":"95.592","OBJECT_ID":"2021-021AR","OBJECT_NAME":"STARLINK-2359","LAUNCH_DATE":"2021-03-14","REF_FRAME":"TEME","APOAPSIS":"548.475","TLE_LINE2":"2 47899  53.0543  12.2524 0001823  64.6844 295.4333 15.06400466 55068","CENTER_NAME":"EARTH","INCLINATION":"53.0543","EPOCH":"2022-03-02T13:48:44.202240","COUNTRY_CODE":"US","DECAY_DATE":null,"BSTAR":"0.00017683000000","SEMIMAJOR_AXIS":"6925.347","MEAN_MOTION":"15.06400466","RCS_SIZE":"LARGE","MEAN_ANOMALY":"295.4333","REV_AT_EPOCH":"5506","MEAN_MOTION_DOT":"0.00002353"},{"OBJECT_ID":"2021-021AS","REF_FRAME":"TEME","LAUNCH_DATE":"2021-03-14","OBJECT_NAME":"STARLINK-2360","APOAPSIS":"548.293","TLE_LINE2":"2 47900  53.0556  22.1385 0001574  56.8164 303.2976 15.06403361 54923","CENTER_NAME":"EARTH","EPOCH":"2022-03-02T14:23:11.752512","INCLINATION":"53.0556","COUNTRY_CODE":"US","DECAY_DATE":null,"MEAN_MOTION":"15.06403361","SEMIMAJOR_AXIS":"6925.338","BSTAR":"0.00017817000000","MEAN_ANOMALY":"303.2976","RCS_SIZE":"LARGE","MEAN_MOTION_DOT":"0.00002374","REV_AT_EPOCH":"5492","TIME_SYSTEM":"UTC","ARG_OF_PERICENTER":"56.8164","SITE":"AFETR","MEAN_ELEMENT_THEORY":"SGP4","RA_OF_ASC_NODE":"22.1385","ELEMENT_SET_NO":"999","CLASSIFICATION_TYPE":"U","GP_ID":"197658392","TLE_LINE1":"1 47900U 21021AS  22061.59944158  .00002374  00000-0  17817-3 0  9995","PERIAPSIS":"546.113","ECCENTRICITY":"0.00015740","OBJECT_TYPE":"PAYLOAD","FILE":"3341695","EPHEMERIS_TYPE":"0","PERIOD":"95.592","NORAD_CAT_ID":"47900","MEAN_MOTION_DDOT":"0.0000000000000"},{"REV_AT_EPOCH":"5506","MEAN_MOTION_DOT":"-0.00000512","RCS_SIZE":"LARGE","MEAN_ANOMALY":"302.3044","BSTAR":"-0.00001547100000","SEMIMAJOR_AXIS":"6925.383","MEAN_MOTION":"15.06388662","COUNTRY_CODE":"US","DECAY_DATE":null,"INCLINATION":"53.0561","EPOCH":"2022-03-02T16:31:55.557408","CENTER_NAME":"EARTH","TLE_LINE2":"2 47901  53.0561  11.7258 0001662  57.8106 302.3044 15.06388662 55066","APOAPSIS":"548.399","OBJECT_NAME":"STARLINK-2361","LAUNCH_DATE":"2021-03-14","REF_FRAME":"TEME","OBJECT_ID":"2021-021AT","MEAN_MOTION_DDOT":"0.0000000000000","NORAD_CAT_ID":"47901","PERIOD":"95.593","EPHEMERIS_TYPE":"0","FILE":"3341695","OBJECT_TYPE":"PAYLOAD","PERIAPSIS":"546.097","TLE_LINE1":"1 47901U 21021AT  22061.68883747 -.00000512  00000-0 -15471-4 0  9991","ECCENTRICITY":"0.00016620","GP_ID":"197659142","CLASSIFICATION_TYPE":"U","ELEMENT_SET_NO":"999","RA_OF_ASC_NODE":"11.7258","MEAN_ELEMENT_THEORY":"SGP4","SITE":"AFETR","ARG_OF_PERICENTER":"57.8106","TIME_SYSTEM":"UTC"},{"OBJECT_TYPE":"PAYLOAD","PERIAPSIS":"546.172","TLE_LINE1":"1 47902U 21021AU  22061.61422061 -.00000233  00000-0  32756-5 0  9998","ECCENTRICITY":"0.00015450","PERIOD":"95.593","NORAD_CAT_ID":"47902","MEAN_MOTION_DDOT":"0.0000000000000","EPHEMERIS_TYPE":"0","FILE":"3341695","SITE":"AFETR","ARG_OF_PERICENTER":"50.3369","TIME_SYSTEM":"UTC","GP_ID":"197659894","CLASSIFICATION_TYPE":"U","RA_OF_ASC_NODE":"32.0521","ELEMENT_SET_NO":"999","MEAN_ELEMENT_THEORY":"SGP4","COUNTRY_CODE":"US","DECAY_DATE":null,"EPOCH":"2022-03-02T14:44:28.660704","INCLINATION":"53.0556","CENTER_NAME":"EARTH","MEAN_MOTION_DOT":"-0.00000233","REV_AT_EPOCH":"5488","MEAN_ANOMALY":"309.7756","RCS_SIZE":"LARGE","SEMIMAJOR_AXIS":"6925.377","MEAN_MOTION":"15.06390701","BSTAR":"0.00000327560000","OBJECT_ID":"2021-021AU","TLE_LINE2":"2 47902  53.0556  32.0521 0001545  50.3369 309.7756 15.06390701 54886","APOAPSIS":"548.312","LAUNCH_DATE":"2021-03-14","REF_FRAME":"TEME","OBJECT_NAME":"STARLINK-2362"},{"ARG_OF_PERICENTER":"47.8252","TIME_SYSTEM":"UTC","SITE":"AFETR","RA_OF_ASC_NODE":"13.7473","ELEMENT_SET_NO":"999","MEAN_ELEMENT_THEORY":"SGP4","GP_ID":"197635651","CLASSIFICATION_TYPE":"U","TLE_LINE1":"1 47903U 21021AV  22061.24008974 -.00000452  00000-0 -11459-4 0  9991","PERIAPSIS":"545.800","ECCENTRICITY":"0.00020540","OBJECT_TYPE":"PAYLOAD","EPHEMERIS_TYPE":"0","FILE":"3341582","PERIOD":"95.592","NORAD_CAT_ID":"47903","MEAN_MOTION_DDOT":"0.0000000000000","OBJECT_ID":"2021-021AV","APOAPSIS":"548.645","REF_FRAME":"TEME","LAUNCH_DATE":"2021-03-14","OBJECT_NAME":"STARLINK-2363","TLE_LINE2":"2 47903  53.0562  13.7473 0002054  47.8252 312.2911 15.06397070 54534","EPOCH":"2022-03-02T05:45:43.753536","INCLINATION":"53.0562","CENTER_NAME":"EARTH","DECAY_DATE":null,"COUNTRY_CODE":"US","MEAN_ANOMALY":"312.2911","RCS_SIZE":"LARGE","SEMIMAJOR_AXIS":"6925.358","MEAN_MOTION":"15.06397070","BSTAR":"-0.00001145900000","MEAN_MOTION_DOT":"-0.00000452","REV_AT_EPOCH":"5453"},{"MEAN_ELEMENT_THEORY":"SGP4","ELEMENT_SET_NO":"999","RA_OF_ASC_NODE":"11.0809","CLASSIFICATION_TYPE":"U","GP_ID":"197658892","TIME_SYSTEM":"UTC","ARG_OF_PERICENTER":"64.0004","SITE":"AFETR","FILE":"3341695","EPHEMERIS_TYPE":"0","MEAN_MOTION_DDOT":"0.0000000000000","NORAD_CAT_ID":"47904","PERIOD":"95.592","TLE_LINE1":"1 47904U 21021AW  22061.83351880  .00002932  00000-0  21561-3 0  9991","ECCENTRICITY":"0.00017340","PERIAPSIS":"545.991","OBJECT_TYPE":"PAYLOAD","OBJECT_NAME":"STARLINK-2364","LAUNCH_DATE":"2021-03-14","REF_FRAME":"TEME","APOAPSIS":"548.393","TLE_LINE2":"2 47904  53.0563  11.0809 0001734  64.0004 296.1164 15.06407099 55073","OBJECT_ID":"2021-021AW","BSTAR":"0.00021561000000","SEMIMAJOR_AXIS":"6925.327","MEAN_MOTION":"15.06407099","RCS_SIZE":"LARGE","MEAN_ANOMALY":"296.1164","REV_AT_EPOCH":"5507","MEAN_MOTION_DOT":"0.00002932","CENTER_NAME":"EARTH","INCLINATION":"53.0563","EPOCH":"2022-03-02T20:00:16.024320","DECAY_DATE":null,"COUNTRY_CODE":"US"},{"SEMIMAJOR_AXIS":"6925.275","MEAN_MOTION":"15.06423848","BSTAR":"-0.00010918000000","MEAN_ANOMALY":"305.1206","RCS_SIZE":"LARGE","MEAN_MOTION_DOT":"-0.00001909","REV_AT_EPOCH":"5520","CENTER_NAME":"EARTH","EPOCH":"2022-03-02T19:54:57.407040","INCLINATION":"53.0565","COUNTRY_CODE":"US","DECAY_DATE":null,"REF_FRAME":"TEME","LAUNCH_DATE":"2021-03-14","OBJECT_NAME":"STARLINK-2365","APOAPSIS":"548.354","TLE_LINE2":"2 47905  53.0565  11.1084 0001752  54.9948 305.1206 15.06423848 55200","OBJECT_ID":"2021-021AX","FILE":"3341695","EPHEMERIS_TYPE":"0","PERIOD":"95.591","NORAD_CAT_ID":"47905","MEAN_MOTION_DDOT":"0.0000000000000","TLE_LINE1":"1 47905U 21021AX  22061.82983110 -.00001909  00000-0 -10918-3 0  9997","PERIAPSIS":"545.927","ECCENTRICITY":"0.00017520","OBJECT_TYPE":"PAYLOAD","MEAN_ELEMENT_THEORY":"SGP4","ELEMENT_SET_NO":"999","RA_OF_ASC_NODE":"11.1084","CLASSIFICATION_TYPE":"U","GP_ID":"197658643","TIME_SYSTEM":"UTC","ARG_OF_PERICENTER":"54.9948","SITE":"AFETR"},{"DECAY_DATE":null,"COUNTRY_CODE":"US","EPOCH":"2022-03-02T20:29:31.050240","INCLINATION":"53.0442","CENTER_NAME":"EARTH","MEAN_MOTION_DOT":"0.00002770","REV_AT_EPOCH":"5667","MEAN_ANOMALY":"339.0171","RCS_SIZE":"LARGE","SEMIMAJOR_AXIS":"6717.832","MEAN_MOTION":"15.76736323","BSTAR":"0.00002091700000","OBJECT_ID":"2021-021AY","TLE_LINE2":"2 47906  53.0442 265.7819 0001999  21.0931 339.0171 15.76736323 56679","APOAPSIS":"341.040","REF_FRAME":"TEME","LAUNCH_DATE":"2021-03-14","OBJECT_NAME":"STARLINK-2366","OBJECT_TYPE":"PAYLOAD","PERIAPSIS":"338.354","TLE_LINE1":"1 47906U 21021AY  22061.85383160  .00002770  00000-0  20917-4 0  9996","ECCENTRICITY":"0.00019990","PERIOD":"91.328","NORAD_CAT_ID":"47906","MEAN_MOTION_DDOT":"0.0000000000000","EPHEMERIS_TYPE":"0","FILE":"3341695","SITE":"AFETR","ARG_OF_PERICENTER":"21.0931","TIME_SYSTEM":"UTC","GP_ID":"197659395","CLASSIFICATION_TYPE":"U","ELEMENT_SET_NO":"999","RA_OF_ASC_NODE":"265.7819","MEAN_ELEMENT_THEORY":"SGP4"}];
